COMMENT,ORIGINATOR,NORAD_CAT_ID,OBJECT_NAME,OBJECT_TYPE,CLASSIFICATION_TYPE,INTLDES,EPOCH,EPOCH_MICROSECONDS,MEAN_MOTION,ECCENTRICITY,INCLINATION,RA_OF_ASC_NODE,ARG_OF_PERICENTER,MEAN_ANOMALY,EPHEMERIS_TYPE,ELEMENT_SET_NO,REV_AT_EPOCH,BSTAR,MEAN_MOTION_DOT,MEAN_MOTION_DDOT,FILE,TLE_LINE0,TLE_LINE1,TLE_LINE2,OBJECT_ID,OBJECT_NUMBER,SEMIMAJOR_AXIS,PERIOD,APOGEE,PERIGEE,DECAYED,date
GENERATED VIA SPACETRACK.ORG API,18 SPCS,48883,SPACEBEE-100,PAYLOAD,U,21059E,2023/3/2 19:29,23360,15.23954021,0.0008052,97.5786,196.6921,281.1996,78.8336,0,999,9314,0.0013783,0.00033414,0,3849487,0 SPACEBEE-100,1 48883U 21059E   23061.81244240  .00033414  00000-0  13783-2 0  9994,2 48883  97.5786 196.6921 0008052 281.1996  78.8336 15.23954021 93144,2021-059E,48883,6872.065,94.491,499.463,488.397,0,
GENERATED VIA SPACETRACK.ORG API,18 SPCS,48883,SPACEBEE-100,PAYLOAD,U,21059E,2023/3/3 14:24,462912,15.24024367,0.0008073,97.5785,197.488,278.35,81.6822,0,999,9326,0.0018698,0.00045524,0,3850120,0 SPACEBEE-100,1 48883U 21059E   23062.60035258  .00045524  00000-0  18698-2 0  9994,2 48883  97.5785 197.4880 0008073 278.3500  81.6822 15.24024367 93265,2021-059E,48883,6871.854,94.487,499.266,488.171,0,
GENERATED VIA SPACETRACK.ORG API,18 SPCS,48883,SPACEBEE-100,PAYLOAD,U,21059E,2023/3/3 22:17,318880,15.24050676,0.0008037,97.5782,197.8195,276.7408,83.2914,0,999,9331,0.0016914,0.00041182,0,3851072,0 SPACEBEE-100,1 48883U 21059E   23062.92863795  .00041182  00000-0  16914-2 0  9999,2 48883  97.5782 197.8195 0008037 276.7408  83.2914 15.24050676 93312,2021-059E,48883,6871.775,94.485,499.162,488.117,0,
GENERATED VIA SPACETRACK.ORG API,18 SPCS,48883,SPACEBEE-100,PAYLOAD,U,21059E,2023/3/4 7:44,130080,15.24091733,0.0008075,97.5784,198.218,275.3305,84.701,0,999,9337,0.0019303,0.00047104,0,3851350,0 SPACEBEE-100,1 48883U 21059E   23063.32257095  .00047104  00000-0  19303-2 0  9999,2 48883  97.5784 198.2180 0008075 275.3305  84.7010 15.24091733 93374,2021-059E,48883,6871.651,94.483,499.065,487.967,0,
GENERATED VIA SPACETRACK.ORG API,18 SPCS,48883,SPACEBEE-100,PAYLOAD,U,21059E,2023/3/4 20:20,5536,15.24138372,0.0008078,97.5791,198.7494,274.1417,85.8896,0,999,9345,0.0017722,0.00043278,0,3851527,0 SPACEBEE-100,1 48883U 21059E   23063.84780099  .00043278  00000-0  17722-2 0  9992,2 48883  97.5791 198.7494 0008078 274.1417  85.8896 15.24138372 93453,2021-059E,48883,6871.511,94.48,498.927,487.825,0,
GENERATED VIA SPACETRACK.ORG API,18 SPCS,48883,SPACEBEE-100,PAYLOAD,U,21059E,2023/3/5 7:22,192576,15.24183474,0.0008054,97.5794,199.2139,272.6913,87.3402,0,999,9352,0.0019385,0.00047435,0,3851939,0 SPACEBEE-100,1 48883U 21059E   23064.30736334  .00047435  00000-0  19385-2 0  9993,2 48883  97.5794 199.2139 0008054 272.6913  87.3402 15.24183474 93527,2021-059E,48883,6871.375,94.477,498.775,487.706,0,
GENERATED VIA SPACETRACK.ORG API,18 SPCS,48883,SPACEBEE-100,PAYLOAD,U,21059E,2023/3/5 21:33,302528,15.24242539,0.0008105,97.5791,199.8107,271.1129,88.9179,0,999,9361,0.0020175,0.00049472,0,3852135,0 SPACEBEE-100,1 48883U 21059E   23064.89820952  .00049472  00000-0  20175-2 0  9999,2 48883  97.5791 199.8107 0008105 271.1129  88.9179 15.24242539 93611,2021-059E,48883,6871.198,94.473,498.632,487.494,0,
GENERATED VIA SPACETRACK.ORG API,18 SPCS,48883,SPACEBEE-100,PAYLOAD,U,21059E,2023/3/5 21:33,302528,15.24242539,0.0008105,97.5791,199.8107,271.1129,88.9179,0,999,9361,0.0020175,0.00049472,0,3852256,0 SPACEBEE-100,1 48883U 21059E   23064.89820952  .00049472  00000-0  20175-2 0  9999,2 48883  97.5791 199.8107 0008105 271.1129  88.9179 15.24242539 93611,2021-059E,48883,6871.198,94.473,498.632,487.494,0,
GENERATED VIA SPACETRACK.ORG API,18 SPCS,48883,SPACEBEE-100,PAYLOAD,U,21059E,2023/3/6 19:36,47136,15.24333862,0.0008074,97.5796,200.7403,267.2772,92.754,0,999,9375,0.0019595,0.0004817,0,3853141,0 SPACEBEE-100,1 48883U 21059E   23065.81725749  .00048170  00000-0  19595-2 0  9998,2 48883  97.5796 200.7403 0008074 267.2772  92.7540 15.24333862 93752,2021-059E,48883,6870.923,94.467,498.336,487.241,0,
GENERATED VIA SPACETRACK.ORG API,18 SPCS,48883,SPACEBEE-100,PAYLOAD,U,21059E,2023/3/7 8:13,626112,15.24388842,0.0008108,97.5797,201.2714,265.8417,94.1894,0,999,9383,0.002136,0.00052633,0,3853695,0 SPACEBEE-100,1 48883U 21059E   23066.34240308  .00052633  00000-0  21360-2 0  9992,2 48883  97.5797 201.2714 0008108 265.8417  94.1894 15.24388842 93837,2021-059E,48883,6870.758,94.464,498.194,487.052,0,
GENERATED VIA SPACETRACK.ORG API,18 SPCS,48883,SPACEBEE-100,PAYLOAD,U,21059E,2023/3/7 14:31,327648,15.24414996,0.0008112,97.5798,201.5371,265.0621,94.969,0,999,9387,0.002136,0.00052674,0,3854072,0 SPACEBEE-100,1 48883U 21059E   23066.60496907  .00052674  00000-0  21360-2 0  9994,2 48883  97.5798 201.5371 0008112 265.0621  94.9690 15.24414996 93870,2021-059E,48883,6870.68,94.462,498.118,486.971,0,
GENERATED VIA SPACETRACK.ORG API,18 SPCS,48883,SPACEBEE-100,PAYLOAD,U,21059E,2023/3/8 7:50,17728,15.24482038,0.0008138,97.5799,202.2674,262.7504,97.2808,0,999,9398,0.0018802,0.00046411,0,3854586,0 SPACEBEE-100,1 48883U 21059E   23067.32700252  .00046411  00000-0  18802-2 0  9994,2 48883  97.5799 202.2674 0008138 262.7504  97.2808 15.24482038 93988,2021-059E,48883,6870.478,94.458,497.934,486.752,0,
GENERATED VIA SPACETRACK.ORG API,18 SPCS,48883,SPACEBEE-100,PAYLOAD,U,21059E,2023/3/8 7:50,17728,15.24482038,0.0008138,97.5799,202.2674,262.7504,97.2808,0,999,9398,0.0018802,0.00046411,0,3855077,0 SPACEBEE-100,1 48883U 21059E   23067.32700252  .00046411  00000-0  18802-2 0  9994,2 48883  97.5799 202.2674 0008138 262.7504  97.2808 15.24482038 93988,2021-059E,48883,6870.478,94.458,497.934,486.752,0,
GENERATED VIA SPACETRACK.ORG API,18 SPCS,48883,SPACEBEE-100,PAYLOAD,U,21059E,2023/3/9 7:28,890112,15.24586792,0.0008012,97.5804,203.2635,259.0328,101.0008,0,999,9413,0.0021323,0.00052853,0,3855764,0 SPACEBEE-100,1 48883U 21059E   23068.31153808  .00052853  00000-0  21323-2 0  9992,2 48883  97.5804 203.2635 0008012 259.0328 101.0008 15.24586792 94133,2021-059E,48883,6870.163,94.452,497.533,486.524,0,
GENERATED VIA SPACETRACK.ORG API,18 SPCS,48883,SPACEBEE-100,PAYLOAD,U,21059E,2023/3/9 21:39,357504,15.24653255,0.0008,97.5809,203.8611,257.471,102.5633,0,999,9422,0.0022017,0.00054697,0,3855951,0 SPACEBEE-100,1 48883U 21059E   23068.90222636  .00054697  00000-0  22017-2 0  9992,2 48883  97.5809 203.8611 0008000 257.4710 102.5633 15.24653255 94221,2021-059E,48883,6869.964,94.448,497.325,486.333,0,
GENERATED VIA SPACETRACK.ORG API,18 SPCS,48883,SPACEBEE-100,PAYLOAD,U,21059E,2023/3/10 8:40,958144,15.24710523,0.0008122,97.581,204.326,256.6839,103.3493,0,999,9429,0.0021921,0.00054552,0,3856526,0 SPACEBEE-100,1 48883U 21059E   23069.36163146  .00054552  00000-0  21921-2 0  9996,2 48883  97.5810 204.3260 0008122 256.6839 103.3493 15.24710523 94299,2021-059E,48883,6869.792,94.444,497.236,486.077,0,
GENERATED VIA SPACETRACK.ORG API,18 SPCS,48883,SPACEBEE-100,PAYLOAD,U,21059E,2023/3/10 21:16,454592,15.24760376,0.0008153,97.5809,204.8575,256.0134,104.0197,0,999,9437,0.0019626,0.00048868,0,3856975,0 SPACEBEE-100,1 48883U 21059E   23069.88664878  .00048868  00000-0  19626-2 0  9993,2 48883  97.5809 204.8575 0008153 256.0134 104.0197 15.24760376 94376,2021-059E,48883,6869.642,94.441,497.108,485.906,0,
GENERATED VIA SPACETRACK.ORG API,18 SPCS,48883,SPACEBEE-100,PAYLOAD,U,21059E,2023/3/11 8:18,467552,15.24808367,0.0008198,97.5811,205.3219,253.414,106.6197,0,999,9444,0.002059,0.00051364,0,3857499,0 SPACEBEE-100,1 48883U 21059E   23070.34602393  .00051364  00000-0  20590-2 0  9997,2 48883  97.5811 205.3219 0008198 253.4140 106.6197 15.24808367 94446,2021-059E,48883,6869.498,94.438,496.995,485.731,0,
GENERATED VIA SPACETRACK.ORG API,18 SPCS,48883,SPACEBEE-100,PAYLOAD,U,21059E,2023/3/11 8:18,467552,15.24808367,0.0008198,97.5811,205.3219,253.414,106.6197,0,999,9444,0.002059,0.00051364,0,3857581,0 SPACEBEE-100,1 48883U 21059E   23070.34602393  .00051364  00000-0  20590-2 0  9997,2 48883  97.5811 205.3219 0008198 253.4140 106.6197 15.24808367 94446,2021-059E,48883,6869.498,94.438,496.995,485.731,0,
GENERATED VIA SPACETRACK.ORG API,18 SPCS,48883,SPACEBEE-100,PAYLOAD,U,21059E,2023/3/11 14:36,969024,15.2482812,0.0008136,97.5809,205.5884,253.3049,106.7295,0,999,9448,0.0018118,0.00045177,0,3857847,0 SPACEBEE-100,1 48883U 21059E   23070.60851816  .00045177  00000-0  18118-2 0  9990,2 48883  97.5809 205.5884 0008136 253.3049 106.7295 15.24828120 94485,2021-059E,48883,6869.439,94.437,496.893,485.715,0,
GENERATED VIA SPACETRACK.ORG API,18 SPCS,48883,SPACEBEE-100,PAYLOAD,U,21059E,2023/3/12 7:55,770496,15.2489874,0.0008221,97.5806,206.3186,250.229,109.8061,0,999,9459,0.0019884,0.00049723,0,3858427,0 SPACEBEE-100,1 48883U 21059E   23071.33035614  .00049723  00000-0  19884-2 0  9993,2 48883  97.5806 206.3186 0008221 250.2290 109.8061 15.24898740 94597,2021-059E,48883,6869.227,94.432,496.739,485.444,0,
GENERATED VIA SPACETRACK.ORG API,18 SPCS,48883,SPACEBEE-100,PAYLOAD,U,21059E,2023/3/12 7:55,770496,15.2489874,0.0008221,97.5806,206.3186,250.229,109.8061,0,999,9459,0.0019884,0.00049723,0,3858534,0 SPACEBEE-100,1 48883U 21059E   23071.33035614  .00049723  00000-0  19884-2 0  9993,2 48883  97.5806 206.3186 0008221 250.2290 109.8061 15.24898740 94597,2021-059E,48883,6869.227,94.432,496.739,485.444,0,
GENERATED VIA SPACETRACK.ORG API,18 SPCS,48883,SPACEBEE-100,PAYLOAD,U,21059E,2023/3/13 7:33,914496,15.24984081,0.0008154,97.5803,207.315,246.6735,113.3645,0,999,9474,0.0016155,0.00040436,0,3859270,0 SPACEBEE-100,1 48883U 21059E   23072.31462864  .00040436  00000-0  16155-2 0  9993,2 48883  97.5803 207.3150 0008154 246.6735 113.3645 15.24984081 94743,2021-059E,48883,6868.97,94.427,496.436,485.234,0,
